SOYUZ-MS 28             
1 66664U 25275A   25345.89616116  .00014378  00000+0  26381-3 0  9991
2 66664  51.6307 146.6565 0003297 237.1442 122.9229 15.49521399  1285
1998-067XS              
1 66906U 98067XS  25345.82697218  .00034698  00000+0  60264-3 0  9999
2 66906  51.6297 146.9447 0003675 198.3211 161.7647 15.50491702  1478
1998-067XT              
1 66907U 98067XT  25343.50529068  .00076342  00000+0  12921-2 0  9998
2 66907  51.6307 158.4423 0004803 208.5081 151.5646 15.50864429  1113
1998-067XU              
1 66908U 98067XU  25345.82445213  .00079814  00000+0  13270-2 0  9990
2 66908  51.6299 146.9280 0004696 220.0254 140.0390 15.51346926  1474
SILVERSAT               
1 66909U 98067XV  25345.82414535  .00082864  00000+0  13718-2 0  9990
2 66909  51.6300 146.9260 0004556 222.0234 138.0406 15.51450033  1471
1998-067XW              
1 66910U 98067XW  25345.82273475  .00069176  00000+0  11427-2 0  9994
2 66910  51.6301 146.9170 0005376 203.4285 156.6460 15.51588385  1472
1998-067XX              
1 66911U 98067XX  25345.82215948  .00082980  00000+0  13560-2 0  9994
2 66911  51.6297 146.9125 0005115 205.0916 154.9826 15.51811503  1464
1998-067XY              
1 66912U 98067XY  25345.82552236  .00058790  00000+0  99420-3 0  9991
2 66912  51.6304 146.9360 0004705 217.5082 142.5579 15.51001955  1461
